STARLINK-5614           
1 55756U 23028R   25361.58130294  .00000309  00000+0  33654-4 0  9998
2 55756  70.0005  66.0817 0003407 268.2459  91.8310 14.98331132155244
STARLINK-5544           
1 55757U 23028S   25361.46865911 -.00000560  00000+0 -39145-4 0  9999
2 55757  70.0005  66.4928 0003673 275.0763  84.9977 14.98344132155225
STARLINK-5072           
1 55758U 23028T   25361.52706646  .00000432  00000+0  44031-4 0  9992
2 55758  70.0005  66.2936 0003212 265.0009  95.0783 14.98330720155231
STARLINK-5532           
1 55760U 23028V   25361.57714707 -.00002473  00000+0 -19964-3 0  9992
2 55760  70.0003  66.0670 0003566 274.2006  85.8745 14.98311562155245
STARLINK-5611           
1 55761U 23028W   25361.48946927 -.00000067  00000+0  22159-5 0  9992
2 55761  70.0014  46.6913 0003413 247.5071 112.5726 14.98321480155717
STARLINK-5603           
1 55762U 23028X   25361.54353975  .00000699  00000+0  66356-4 0  9991
2 55762  70.0000  46.4709 0003271 269.8660  90.2124 14.98332037155722
STARLINK-5593           
1 55763U 23028Y   25361.58547723 -.00000181  00000+0 -73645-5 0  9990
2 55763  70.0001  66.0964 0003098 267.5098  92.5707 14.98332681155246
STARLINK-5499           
1 55764U 23028Z   25361.54771316  .00000594  00000+0  57592-4 0  9992
2 55764  70.0002  46.4871 0003221 269.7496  90.3294 14.98332374155720
STARLINK-5595           
1 55765U 23028AA  25361.55188630  .00000295  00000+0  32556-4 0  9996
2 55765  70.0002  46.5029 0003483 268.7983  91.2777 14.98332460155729
STARLINK-5599           
1 55766U 23028AB  25361.52684926 -.00004040  00000+0 -33094-3 0  9994
2 55766  69.9994  46.4109 0003167 265.7287  94.3510 14.98334298155728
STARLINK-5606           
1 55767U 23028AC  25361.55605990  .00001155  00000+0  10456-3 0  9991
2 55767  69.9998  46.5171 0003188 271.2247  88.8546 14.98333286155705
STARLINK-5584           
1 55769U 23028AE  25361.46843148  .00000755  00000+0  71053-4 0  9998
2 55769  70.0000  46.6102 0003124 269.8713  90.2088 14.98331838155710
STARLINK-5557           
1 55770U 23028AF  25361.53101644  .00000709  00000+0  67192-4 0  9994
2 55770  70.0003  46.4268 0003474 270.0214  90.0547 14.98330508155726
STARLINK-5591           
1 55771U 23028AG  25361.85646779  .00000089  00000+0  15254-4 0  9996
2 55771  69.9999  45.5546 0003128 269.9517  90.1284 14.98331764155775
STARLINK-5835           
1 55772U 23028AH  25361.83993549 -.00001760  00000+0 -13974-3 0  9990
2 55772  70.0002  45.4991 0002959 270.3039  89.7781 14.98339741155772
STARLINK-5833           
1 55773U 23028AJ  25361.53937022  .00003666  00000+0  31479-3 0  9997
2 55773  69.9991  46.4532 0003624 271.3460  88.7284 14.98341309155723
STARLINK-5812           
1 55774U 23028AK  25361.51849272  .00000071  00000+0  13723-4 0  9995
2 55774  70.0003  46.3826 0004231 268.1317  91.9357 14.98330136155729
