[{"OBJECT_NAME":"STARLINK-5614","OBJECT_ID":"2023-028R","EPOCH":"2025-12-27T13:57:04.574016","MEAN_MOTION":14.98331132,"ECCENTRICITY":0.0003407,"INCLINATION":70.0005,"RA_OF_ASC_NODE":66.0817,"ARG_OF_PERICENTER":268.2459,"MEAN_ANOMALY":91.831,"EPHEMERIS_TYPE":0,"CLASSIFICATION_TYPE":"U","NORAD_CAT_ID":55756,"ELEMENT_SET_NO":999,"REV_AT_EPOCH":15524,"BSTAR":3.3654e-5,"MEAN_MOTION_DOT":3.09e-6,"MEAN_MOTION_DDOT":0},{"OBJECT_NAME":"STARLINK-5544","OBJECT_ID":"2023-028S","EPOCH":"2025-12-27T11:14:52.147104","MEAN_MOTION":14.98344132,"ECCENTRICITY":0.0003673,"INCLINATION":70.0005,"RA_OF_ASC_NODE":66.4928,"ARG_OF_PERICENTER":275.0763,"MEAN_ANOMALY":84.9977,"EPHEMERIS_TYPE":0,"CLASSIFICATION_TYPE":"U","NORAD_CAT_ID":55757,"ELEMENT_SET_NO":999,"REV_AT_EPOCH":15522,"BSTAR":-3.9145e-5,"MEAN_MOTION_DOT":-5.6e-6,"MEAN_MOTION_DDOT":0},{"OBJECT_NAME":"STARLINK-5072","OBJECT_ID":"2023-028T","EPOCH":"2025-12-27T12:38:58.542144","MEAN_MOTION":14.9833072,"ECCENTRICITY":0.0003212,"INCLINATION":70.0005,"RA_OF_ASC_NODE":66.2936,"ARG_OF_PERICENTER":265.0009,"MEAN_ANOMALY":95.0783,"EPHEMERIS_TYPE":0,"CLASSIFICATION_TYPE":"U","NORAD_CAT_ID":55758,"ELEMENT_SET_NO":999,"REV_AT_EPOCH":15523,"BSTAR":4.4031e-5,"MEAN_MOTION_DOT":4.32e-6,"MEAN_MOTION_DDOT":0},{"OBJECT_NAME":"STARLINK-5532","OBJECT_ID":"2023-028V","EPOCH":"2025-12-27T13:51:05.506848","MEAN_MOTION":14.98311562,"ECCENTRICITY":0.0003566,"INCLINATION":70.0003,"RA_OF_ASC_NODE":66.067,"ARG_OF_PERICENTER":274.2006,"MEAN_ANOMALY":85.8745,"EPHEMERIS_TYPE":0,"CLASSIFICATION_TYPE":"U","NORAD_CAT_ID":55760,"ELEMENT_SET_NO":999,"REV_AT_EPOCH":15524,"BSTAR":-0.00019964,"MEAN_MOTION_DOT":-2.473e-5,"MEAN_MOTION_DDOT":0},{"OBJECT_NAME":"STARLINK-5611","OBJECT_ID":"2023-028W","EPOCH":"2025-12-27T11:44:50.144928","MEAN_MOTION":14.9832148,"ECCENTRICITY":0.0003413,"INCLINATION":70.0014,"RA_OF_ASC_NODE":46.6913,"ARG_OF_PERICENTER":247.5071,"MEAN_ANOMALY":112.5726,"EPHEMERIS_TYPE":0,"CLASSIFICATION_TYPE":"U","NORAD_CAT_ID":55761,"ELEMENT_SET_NO":999,"REV_AT_EPOCH":15571,"BSTAR":2.2159e-6,"MEAN_MOTION_DOT":-6.7e-7,"MEAN_MOTION_DDOT":0},{"OBJECT_NAME":"STARLINK-5603","OBJECT_ID":"2023-028X","EPOCH":"2025-12-27T13:02:41.834400","MEAN_MOTION":14.98332037,"ECCENTRICITY":0.0003271,"INCLINATION":70,"RA_OF_ASC_NODE":46.4709,"ARG_OF_PERICENTER":269.866,"MEAN_ANOMALY":90.2124,"EPHEMERIS_TYPE":0,"CLASSIFICATION_TYPE":"U","NORAD_CAT_ID":55762,"ELEMENT_SET_NO":999,"REV_AT_EPOCH":15572,"BSTAR":6.6356e-5,"MEAN_MOTION_DOT":6.99e-6,"MEAN_MOTION_DDOT":0},{"OBJECT_NAME":"STARLINK-5593","OBJECT_ID":"2023-028Y","EPOCH":"2025-12-27T14:03:05.232672","MEAN_MOTION":14.98332681,"ECCENTRICITY":0.0003098,"INCLINATION":70.0001,"RA_OF_ASC_NODE":66.0964,"ARG_OF_PERICENTER":267.5098,"MEAN_ANOMALY":92.5707,"EPHEMERIS_TYPE":0,"CLASSIFICATION_TYPE":"U","NORAD_CAT_ID":55763,"ELEMENT_SET_NO":999,"REV_AT_EPOCH":15524,"BSTAR":-7.3645e-6,"MEAN_MOTION_DOT":-1.81e-6,"MEAN_MOTION_DDOT":0},{"OBJECT_NAME":"STARLINK-5499","OBJECT_ID":"2023-028Z","EPOCH":"2025-12-27T13:08:42.417024","MEAN_MOTION":14.98332374,"ECCENTRICITY":0.0003221,"INCLINATION":70.0002,"RA_OF_ASC_NODE":46.4871,"ARG_OF_PERICENTER":269.7496,"MEAN_ANOMALY":90.3294,"EPHEMERIS_TYPE":0,"CLASSIFICATION_TYPE":"U","NORAD_CAT_ID":55764,"ELEMENT_SET_NO":999,"REV_AT_EPOCH":15572,"BSTAR":5.7592e-5,"MEAN_MOTION_DOT":5.94e-6,"MEAN_MOTION_DDOT":0},{"OBJECT_NAME":"STARLINK-5595","OBJECT_ID":"2023-028AA","EPOCH":"2025-12-27T13:14:42.976320","MEAN_MOTION":14.9833246,"ECCENTRICITY":0.0003483,"INCLINATION":70.0002,"RA_OF_ASC_NODE":46.5029,"ARG_OF_PERICENTER":268.7983,"MEAN_ANOMALY":91.2777,"EPHEMERIS_TYPE":0,"CLASSIFICATION_TYPE":"U","NORAD_CAT_ID":55765,"ELEMENT_SET_NO":999,"REV_AT_EPOCH":15572,"BSTAR":3.2556e-5,"MEAN_MOTION_DOT":2.95e-6,"MEAN_MOTION_DDOT":0},{"OBJECT_NAME":"STARLINK-5599","OBJECT_ID":"2023-028AB","EPOCH":"2025-12-27T12:38:39.776064","MEAN_MOTION":14.98334298,"ECCENTRICITY":0.0003167,"INCLINATION":69.9994,"RA_OF_ASC_NODE":46.4109,"ARG_OF_PERICENTER":265.7287,"MEAN_ANOMALY":94.351,"EPHEMERIS_TYPE":0,"CLASSIFICATION_TYPE":"U","NORAD_CAT_ID":55766,"ELEMENT_SET_NO":999,"REV_AT_EPOCH":15572,"BSTAR":-0.00033094,"MEAN_MOTION_DOT":-4.04e-5,"MEAN_MOTION_DDOT":0},{"OBJECT_NAME":"STARLINK-5606","OBJECT_ID":"2023-028AC","EPOCH":"2025-12-27T13:20:43.575360","MEAN_MOTION":14.98333286,"ECCENTRICITY":0.0003188,"INCLINATION":69.9998,"RA_OF_ASC_NODE":46.5171,"ARG_OF_PERICENTER":271.2247,"MEAN_ANOMALY":88.8546,"EPHEMERIS_TYPE":0,"CLASSIFICATION_TYPE":"U","NORAD_CAT_ID":55767,"ELEMENT_SET_NO":999,"REV_AT_EPOCH":15570,"BSTAR":0.00010456,"MEAN_MOTION_DOT":1.155e-5,"MEAN_MOTION_DDOT":0},{"OBJECT_NAME":"STARLINK-5584","OBJECT_ID":"2023-028AE","EPOCH":"2025-12-27T11:14:32.479872","MEAN_MOTION":14.98331838,"ECCENTRICITY":0.0003124,"INCLINATION":70,"RA_OF_ASC_NODE":46.6102,"ARG_OF_PERICENTER":269.8713,"MEAN_ANOMALY":90.2088,"EPHEMERIS_TYPE":0,"CLASSIFICATION_TYPE":"U","NORAD_CAT_ID":55769,"ELEMENT_SET_NO":999,"REV_AT_EPOCH":15571,"BSTAR":7.1053e-5,"MEAN_MOTION_DOT":7.55e-6,"MEAN_MOTION_DDOT":0},{"OBJECT_NAME":"STARLINK-5557","OBJECT_ID":"2023-028AF","EPOCH":"2025-12-27T12:44:39.820416","MEAN_MOTION":14.98330508,"ECCENTRICITY":0.0003474,"INCLINATION":70.0003,"RA_OF_ASC_NODE":46.4268,"ARG_OF_PERICENTER":270.0214,"MEAN_ANOMALY":90.0547,"EPHEMERIS_TYPE":0,"CLASSIFICATION_TYPE":"U","NORAD_CAT_ID":55770,"ELEMENT_SET_NO":999,"REV_AT_EPOCH":15572,"BSTAR":6.7192e-5,"MEAN_MOTION_DOT":7.09e-6,"MEAN_MOTION_DDOT":0},{"OBJECT_NAME":"STARLINK-5591","OBJECT_ID":"2023-028AG","EPOCH":"2025-12-27T20:33:18.817056","MEAN_MOTION":14.98331764,"ECCENTRICITY":0.0003128,"INCLINATION":69.9999,"RA_OF_ASC_NODE":45.5546,"ARG_OF_PERICENTER":269.9517,"MEAN_ANOMALY":90.1284,"EPHEMERIS_TYPE":0,"CLASSIFICATION_TYPE":"U","NORAD_CAT_ID":55771,"ELEMENT_SET_NO":999,"REV_AT_EPOCH":15577,"BSTAR":1.5254e-5,"MEAN_MOTION_DOT":8.9e-7,"MEAN_MOTION_DDOT":0},{"OBJECT_NAME":"STARLINK-5835","OBJECT_ID":"2023-028AH","EPOCH":"2025-12-27T20:09:30.426336","MEAN_MOTION":14.98339741,"ECCENTRICITY":0.0002959,"INCLINATION":70.0002,"RA_OF_ASC_NODE":45.4991,"ARG_OF_PERICENTER":270.3039,"MEAN_ANOMALY":89.7781,"EPHEMERIS_TYPE":0,"CLASSIFICATION_TYPE":"U","NORAD_CAT_ID":55772,"ELEMENT_SET_NO":999,"REV_AT_EPOCH":15577,"BSTAR":-0.00013974,"MEAN_MOTION_DOT":-1.76e-5,"MEAN_MOTION_DDOT":0},{"OBJECT_NAME":"STARLINK-5833","OBJECT_ID":"2023-028AJ","EPOCH":"2025-12-27T12:56:41.587008","MEAN_MOTION":14.98341309,"ECCENTRICITY":0.0003624,"INCLINATION":69.9991,"RA_OF_ASC_NODE":46.4532,"ARG_OF_PERICENTER":271.346,"MEAN_ANOMALY":88.7284,"EPHEMERIS_TYPE":0,"CLASSIFICATION_TYPE":"U","NORAD_CAT_ID":55773,"ELEMENT_SET_NO":999,"REV_AT_EPOCH":15572,"BSTAR":0.00031479,"MEAN_MOTION_DOT":3.666e-5,"MEAN_MOTION_DDOT":0},{"OBJECT_NAME":"STARLINK-5812","OBJECT_ID":"2023-028AK","EPOCH":"2025-12-27T12:26:37.771008","MEAN_MOTION":14.98330136,"ECCENTRICITY":0.0004231,"INCLINATION":70.0003,"RA_OF_ASC_NODE":46.3826,"ARG_OF_PERICENTER":268.1317,"MEAN_ANOMALY":91.9357,"EPHEMERIS_TYPE":0,"CLASSIFICATION_TYPE":"U","NORAD_CAT_ID":55774,"ELEMENT_SET_NO":999,"REV_AT_EPOCH":15572,"BSTAR":1.3723e-5,"MEAN_MOTION_DOT":7.1e-7,"MEAN_MOTION_DDOT":0}]
